218P/LINEAR,e,2.7279,175.7639,59.8035,3.081032,0.1822467,0.62692014,228.7599,03/15.0/2024,2000,g 16.0,4.0
# From MPEC 2024-DC6
219P/LINEAR,e,11.5400,230.9532,107.6280,3.645047,0.1416281,0.35396087,4.2727,03/15.0/2024,2000,g 11.0,4.0
# From MPEC 2024-A43
220P/McNaught,e,8.1241,150.1047,180.6133,3.118900,0.1789377,0.50079553,213.0994,03/15.0/2024,2000,g 15.0,4.0
# From MPEC 2022-UY9
221P/LINEAR,e,11.5172,229.5954,39.5331,3.439210,0.1545312,0.49970218,125.9500,03/15.0/2024,2000,g 14.5,4.0
# From MPC 92277
222P/LINEAR,e,5.0961,6.7848,346.2835,2.897543,0.1998293,0.71468822,348.2314,03/15.0/2024,2000,g 20.0,4.0
# From MPEC 2023-A50
223P/Skiff,e,27.0127,346.7435,37.9293,4.158307,0.1162330,0.41654129,217.4757,03/15.0/2024,2000,g 12.0,4.0
# From MPEC 2023-BF4
224P/LINEAR-NEAT,e,13.3056,40.0379,16.7465,3.445359,0.1541176,0.40587377,81.9712,03/15.0/2024,2000,g 15.5,4.0
# From MPEC 2024-D33
225P/LINEAR,e,21.3660,14.2018,3.9002,3.647529,0.1414836,0.63845563,31.1232,03/15.0/2024,2000,g 18.0,4.0
# From MPEC 2024-EF7
226P/Pigott-LINEAR-Kowalski,e,44.0465,54.0116,341.0488,3.768827,0.1347084,0.52937760,10.6166,03/15.0/2024,2000,g 12.5,4.0
# From MPEC 2024-EF7
227P/Catalina-LINEAR,e,7.5086,36.8082,105.5693,3.435850,0.1547579,0.52744690,1.0449,03/15.0/2024,2000,g 16.5,2.0
# From MPEC 2022-HC2
228P/LINEAR,e,7.9133,30.9768,114.7417,4.164595,0.1159698,0.17676460,170.2643,03/15.0/2024,2000,g 14.1,4.0
# From MPC106349
229P/Gibbs,e,26.0994,157.9353,224.1173,3.924050,0.1267950,0.37797305,314.9039,03/15.0/2024,2000,g 13.0,4.0
# From MPEC 2023-KD6
230P/LINEAR,e,15.4687,106.9495,313.5210,3.454063,0.1535354,0.54566692,111.5393,03/15.0/2024,2000,g 13.0,4.0
# From MPEC 2023-SQ0
231P/LINEAR-NEAT,e,12.2752,132.8722,44.0759,4.054117,0.1207423,0.24084954,210.3547,03/15.0/2024,2000,g 14.5,2.0
# From MPC112394
232P/Hill,e,14.6443,56.0292,53.2159,4.472528,0.1042016,0.33554353,187.9712,03/15.0/2024,2000,g 11.5,4.0
# From MPEC 2021-N06
233P/La Sagra,e,11.2889,74.9010,26.9838,3.027381,0.1871128,0.41270441,235.7172,03/15.0/2024,2000,g 15.0,4.0
# From MPEC 2024-DC6
234P/LINEAR,e,11.5356,179.5667,357.4183,3.795676,0.1332817,0.25680815,330.3347,03/15.0/2024,2000,g 12.0,4.0
# From MPC110497
235P/LINEAR,e,9.7049,204.1356,347.5846,3.510395,0.1498546,0.40869632,259.8067,03/15.0/2024,2000,g 12.0,4.0
# From MPEC 2023-J29
236P/LINEAR,e,16.3555,245.5691,119.3922,3.726046,0.1370351,0.50932206,315.3608,03/15.0/2024,2000,g 14.0,4.0
# From MPEC 2024-DC6
237P/LINEAR,e,14.0169,245.3556,25.2962,3.510708,0.1498346,0.43388859,45.7394,03/15.0/2024,2000,g 14.5,2.0
# From MPEC 2023-UR6
238P/Read,e,1.2640,51.6322,324.2430,3.165952,0.1749636,0.25117802,113.4826,03/15.0/2024,2000,g 14.5,4.0
# From MPEC 2021-F20
239P/LINEAR,e,11.3077,255.9462,220.3431,4.465749,0.1044390,0.63099937,197.4932,03/15.0/2024,2000,g 17.5,2.0
# From MPEC 2023-CD7
240P/NEAT,e,23.5368,74.9156,352.0050,3.862152,0.1298554,0.45028321,276.2571,03/15.0/2024,2000,g 11.0,4.0
# From MPEC 2022-J42
241P/LINEAR,e,21.0959,305.4683,111.5113,4.924743,0.0901838,0.61045791,86.8308,03/15.0/2024,2000,g 13.5,4.0
# From MPEC 2024-BE0
242P/Spahr,e,32.4642,180.3657,244.8782,5.527800,0.0758360,0.28153453,338.5049,03/15.0/2024,2000,g  8.0,4.0
# From MPEC 2022-K19
243P/NEAT,e,7.6434,87.6497,283.6545,3.828650,0.1315635,0.36058254,266.2928,03/15.0/2024,2000,g 12.5,4.0
# From MPEC 2024-EF7
244P/Scotti,e,2.2588,354.0072,93.2693,4.900254,0.0908607,0.19977118,43.8364,03/15.0/2024,2000,g  9.0,4.0
# From MPEC 2022-CN4
245P/WISE,e,21.1771,316.8900,316.5638,4.049918,0.1209302,0.45569852,269.7382,03/15.0/2024,2000,g 14.0,4.0
# From MPEC 2024-C04
246P/NEAT,e,16.9611,75.1820,182.1611,4.081125,0.1195458,0.28373796,132.8362,03/15.0/2024,2000,g 10.5,4.0
# From MPEC 2021-F20
247P/LINEAR,e,13.6590,54.0103,47.4373,3.965879,0.1247944,0.62527311,240.8115,03/15.0/2024,2000,g 16.5,2.0
# From MPC 75730
248P/Gibbs,e,6.3513,207.8182,209.9232,5.985865,0.0672998,0.63935118,323.0623,03/15.0/2024,2000,g 14.0,4.0
# From MPEC 2022-YN2
249P/LINEAR,e,8.3854,239.0460,65.7526,2.764415,0.2144367,0.81938449,290.5888,03/15.0/2024,2000,g 15.5,4.0
# From MPC110497
250P/Larson,e,13.1559,73.2902,45.9446,3.774619,0.1343985,0.39870735,302.4353,03/15.0/2024,2000,g 14.5,4.0
# From MPC104795
251P/LINEAR,e,23.3871,219.3229,31.2399,3.513832,0.1496348,0.50444715,4.6040,03/15.0/2024,2000,g 16.5,2.0
# From MPEC 2021-S45
252P/LINEAR,e,10.4158,190.9080,343.3879,3.051245,0.1849219,0.67082085,180.9645,03/15.0/2024,2000,g 17.5,4.0
# From MPEC 2020-FB5
253P/PANSTARRS,e,4.9453,146.9090,230.7578,3.462341,0.1529852,0.41457902,326.3503,03/15.0/2024,2000,g 14.5,4.0
# From MPEC 2024-EF7
254P/McNaught,e,32.5507,129.1876,219.7361,4.618205,0.0993103,0.31912386,125.3258,03/15.0/2024,2000,g 11.0,4.0
# From NK 2214
255P/Levy,e,13.3999,275.6385,186.0322,2.942461,0.1952711,0.71183198,108.2441,03/15.0/2024,2000,g  9.0,4.0
# From MPEC 2023_O39
256P/LINEAR,e,27.6234,81.3276,124.1486,4.637861,0.0986796,0.41787095,36.4057,03/15.0/2024,2000,g 14.0,2.0
# From MPEC 2023-A50
257P/Catalina,e,20.2195,207.7153,117.7841,3.766117,0.1348539,0.42932562,172.9020,03/15.0/2024,2000,g 11.5,4.0
# From MPEC 2021-U31
258P/PANSTARRS,e,6.7494,126.2320,25.6173,4.391307,0.1071059,0.20889795,146.4028,03/15.0/2024,2000,g 13.0,4.0
# From MPC106349
259P/Garradd,e,15.8985,51.3713,257.5461,2.728796,0.2186490,0.33882381,167.5049,03/15.0/2024,2000,g 15.5,4.0
# From MPEC 2022-O01
260P/McNaught,e,15.0505,349.3377,18.4682,3.623442,0.1428966,0.60913322,235.2974,03/15.0/2024,2000,g 13.5,4.0
# From MPEC 2021-J28
261P/Larson,e,6.0721,291.0668,67.3414,3.490381,0.1511454,0.42308786,261.4208,03/15.0/2024,2000,g 14.0,4.0
# From MPC 82322
262P/McNaught-Russell,e,29.2773,217.8887,171.0592,6.869881,0.0547369,0.81635496,225.1162,03/15.0/2024,2000,g 13.5,4.0
# From MPEC 2023_O39
263P/Gibbs,e,11.5237,105.5016,35.0343,3.041465,0.1858146,0.59367976,76.0705,03/15.0/2024,2000,g 18.0,4.0
# From MPC114608
264P/Larsen,e,25.7649,219.6134,342.2008,3.987706,0.1237711,0.34951805,224.7330,03/15.0/2024,2000,g 13.0,4.0
# From MPC 79870
265P/LINEAR,e,14.3553,342.9494,33.5126,4.258883,0.1121400,0.64734075,126.6936,03/15.0/2024,2000,g 14.5,4.0
# From MPEC 2021-F20
266P/Christensen,e,3.4272,4.9672,97.6981,3.529692,0.1486274,0.34055788,211.7605,03/15.0/2024,2000,g 14.7,4.0
# From MPC114608
267P/LONEOS,e,6.1428,228.6002,114.2317,3.208971,0.1714570,0.61421991,353.0026,03/15.0/2024,2000,g 19.5,4.0
# From MPC 92277
268P/Bernardi,e,15.6309,124.7713,359.9455,4.636048,0.0987375,0.47305375,332.5842,03/15.0/2024,2000,g 14.0,4.0
# From MPEC 2023-J29
269P/Jedicke,e,7.0844,241.7711,225.6637,7.062854,0.0525090,0.43273261,181.1520,03/15.0/2024,2000,g 10.0,4.0
# From MPC 88332
270P/Gehrels,e,2.9252,223.0374,209.8294,6.653435,0.0574295,0.46990823,225.3276,03/15.0/2024,2000,g  8.0,4.0
# From MPC 92277
271P/van Houten-Lemmon,e,6.8707,9.3271,36.4980,7.033087,0.0528427,0.39615003,205.3834,03/15.0/2024,2000,g 11.0,4.0
# From MPEC 2023-D41
272P/NEAT,e,18.0761,109.4466,27.8845,4.461871,0.1045751,0.45512654,63.4699,03/15.0/2024,2000,g 16.0,2.0
# From MPC 82723
273P/Pons-Gambart,e,136.5788,320.4068,20.2166,31.99409,0.0054463,0.97437669,0.0000,12/22.0094/2012,2000,g 11.5,4.0
# From MPEC 2023-M14
274P/Tombaugh-Tenagra,e,15.8192,81.3188,38.4723,4.377945,0.1075966,0.43991366,76.0048,03/15.0/2024,2000,g 13.9,4.0
# From MPC 81862
275P/Hermann,e,21.2592,348.6948,173.9271,5.788379,0.0707732,0.71333055,292.2324,03/15.0/2024,2000,g 17.0,4.0
# From MPEC 2024-BE0
276P/Vorobjov,e,14.8122,211.3401,199.3434,5.335584,0.0799708,0.26933046,338.2936,03/15.0/2024,2000,g 11.5,4.0
# From MPEC 2021-F20
277P/LINEAR,e,16.7870,276.2721,152.3870,3.853546,0.1302907,0.50643152,152.4460,03/15.0/2024,2000,g 15.1,4.0
# From MPEC 2021-S45
278P/McNaught,e,6.6781,15.2015,237.5057,3.671545,0.1400976,0.44021254,179.1676,03/15.0/2024,2000,g 14.0,4.0
# From MPEC 2024-A43
279P/LaSagra,e,5.0490,346.1608,5.7794,3.573510,0.1459021,0.39933651,48.2592,03/15.0/2024,2000,g 14.0,4.0
# From MPEC 2023-J95
280P/Larsen,e,11.7731,131.3757,104.7206,4.527840,0.1022981,0.41693301,22.8503,03/15.0/2024,2000,g 12.5,4.0
# From MPEC 2023-D41
281P/MOSS,e,4.7176,87.1703,26.7596,4.882191,0.0913654,0.17356048,37.1576,03/15.0/2024,2000,g 11.0,4.0
# From MPC133426
282P/,e,5.8121,217.6167,9.2388,4.237003,0.1130097,0.18771509,98.6679,03/15.0/2024,2000,g 13.5,2.0
# From MPEC 2022-K19
283P/Spacewatch,e,14.4595,161.1216,22.1745,4.133568,0.1172780,0.48442025,107.8136,03/15.0/2024,2000,g 16.0,2.0
# From MPEC 2024-D33
284P/McNaught,e,11.8577,144.2688,202.4720,3.677446,0.1397606,0.37490340,127.8389,03/15.0/2024,2000,g 13.0,4.0
# From MPEC 2023-B57
285P/LINEAR,e,25.0373,185.5038,178.3890,4.506146,0.1030377,0.61845422,44.0836,03/15.0/2024,2000,g 15.0,4.0
# From MPEC 2024-BE0
286P/Christensen,e,17.0946,283.6585,24.7399,4.103554,0.1185670,0.42688215,79.7936,03/15.0/2024,2000,g 14.0,4.0
# From MPEC 2024-A43
287P/Christensen,e,16.3169,139.0269,189.2545,4.167477,0.1158495,0.27182795,29.2358,03/15.0/2024,2000,g 13.5,4.0
# From MPC133426
288P/,e,3.2383,83.1067,280.2855,3.049024,0.1851241,0.20018246,137.8017,03/15.0/2024,2000,g 16.0,2.0
# From MPEC 2023-HD1
289P/Blanpain,e,5.9003,68.8926,9.8578,3.044479,0.1855387,0.68639019,286.6501,03/15.0/2024,2000,g 19.7,4.0
# From MPC 95214
290P/Jager,e,20.0503,302.6792,181.8214,6.216061,0.0635962,0.62781486,235.6180,03/15.0/2024,2000,g 10.5,4.0
# From MPEC 2024-EF7
291P/NEAT,e,6.3098,237.6604,173.5082,4.533752,0.1020980,0.43415817,32.2605,03/15.0/2024,2000,g 13.0,4.0
# From MPEC 2022-K19
292P/Li,e,24.3137,90.9015,319.6087,6.098710,0.0654406,0.58999219,241.3011,03/15.0/2024,2000,g 12.5,4.0
# From MPEC 2022-L66
293P/Spacewatch,e,9.0613,78.3661,40.9488,3.639217,0.1419685,0.41901543,167.7181,03/15.0/2024,2000,g 14.5,4.0
# From MPEC 2020-SI8
294P/LINEAR,e,18.1473,311.5266,235.7077,3.193089,0.1727379,0.60116149,271.1311,03/15.0/2024,2000,g 15.5,4.0
# From MPEC 2022-K19
295P/LINEAR,e,21.0772,7.4084,72.9589,5.302522,0.0807199,0.61754065,290.6028,03/15.0/2024,2000,g 12.0,4.0
# From MPEC 2021-N06
